[{"OBJECT_NAME":"STARLINK-4145","OBJECT_ID":"2022-083F","EPOCH":"2026-03-09T14:30:50.222880","MEAN_MOTION":15.08839686,"ECCENTRICITY":0.0001334,"INCLINATION":53.218,"RA_OF_ASC_NODE":174.5037,"ARG_OF_PERICENTER":92.5029,"MEAN_ANOMALY":267.6116,"EPHEMERIS_TYPE":0,"CLASSIFICATION_TYPE":"U","NORAD_CAT_ID":53137,"ELEMENT_SET_NO":999,"REV_AT_EPOCH":20120,"BSTAR":-6.0578e-6,"MEAN_MOTION_DOT":-3.84e-6,"MEAN_MOTION_DDOT":0},{"OBJECT_NAME":"CZ-4C DEB","OBJECT_ID":"2018-031H","EPOCH":"2026-03-09T10:10:58.582560","MEAN_MOTION":15.14033759,"ECCENTRICITY":0.00199639,"INCLINATION":98.1663,"RA_OF_ASC_NODE":242.9335,"ARG_OF_PERICENTER":272.748,"MEAN_ANOMALY":87.1465,"EPHEMERIS_TYPE":0,"CLASSIFICATION_TYPE":"U","NORAD_CAT_ID":43266,"ELEMENT_SET_NO":999,"REV_AT_EPOCH":43166,"BSTAR":0.00079064643,"MEAN_MOTION_DOT":0.00014379,"MEAN_MOTION_DDOT":0}]
